#aV2011  2 23  0  0   .00000000      96 DD+AD WGS84 FIT  NGA
## 1624 259200.00000000   900.00000000 55615  .0000000000000
+   32     1  2  3  4  5  6  7  8  9 10 11 12 13 14 15 16 17
+         18 19 20 21 22 23 24 25 26 27 28 29 30 31 32  0  0
+          0  0  0  0  0  0  0  0  0  0  0  0  0  0  0  0  0
+          0  0  0  0  0  0  0  0  0  0  0  0  0  0  0  0  0
+          0  0  0  0  0  0  0  0  0  0  0  0  0  0  0  0  0
++         0  0  0  0  0  0  0  0  0  0  0  0  0  0  0  0  0
++         0  0  0  0  0  0  0  0  0  0  0  0  0  0  0  0  0
++         0  0  0  0  0  0  0  0  0  0  0  0  0  0  0  0  0
++         0  0  0  0  0  0  0  0  0  0  0  0  0  0  0  0  0
++         0  0  0  0  0  0  0  0  0  0  0  0  0  0  0  0  0
%c cc cc ccc ccc cccc cccc cccc cccc ccccc ccccc ccccc ccccc
%c cc cc ccc ccc cccc cccc cccc cccc ccccc ccccc ccccc ccccc
%f  0.0000000  0.000000000  0.00000000000  0.000000000000000
%f  0.0000000  0.000000000  0.00000000000  0.000000000000000
%i    0    0    0    0      0      0      0      0         0
%i    0    0    0    0      0      0      0      0         0
/*      NGA, ST. LOUIS,MO.                                  
/*   EPHEMERIS COMPUTED FROM  3 DAYS OF DATA                
/* CCCCCCCCCCCCCCCCCCCCCCCCCCCCCCCCCCCCCCCCCCCCCCCCCCCCCCCCC
/* CCCCCCCCCCCCCCCCCCCCCCCCCCCCCCCCCCCCCCCCCCCCCCCCCCCCCCCCC
*  2011  2 23  4 45   .00000000                                                 
P  1  23733.414194   4506.464805  11082.110148   -210.516690                    
V  1  11324.337185   8809.923697 -27423.101573      -.029389                    
P  2 -22888.490824  12857.096897  -1488.743865    321.819527                    
V  2   -397.271784  -4353.517703 -31509.423328       .020042                    
P  3  11701.944808 -14734.269860  18215.510327    679.702486                    
V  3   5509.595836  23659.401678  15580.063536       .050869                    
P  4 -23649.398579   3763.265430 -12061.817015     43.114589                    
V  4  11496.508127  -9858.860950 -25713.662040       .102637                    
P  5 -16483.640843   6781.457099  19702.558291   -119.037909                    
V  5 -21297.066806 -13246.502476 -13140.297968      -.059282                    
P  6  14233.997784 -10019.453061  20170.604346    -90.855625                    
V  6   2969.298314  25262.611178  10742.188207     -1.424933                    
P  7  -9720.904938 -11533.998385  21878.931078      4.190968                    
V  7  23845.293451 -14120.319626   2955.788052       .007572                    
P  8 -19143.470965  -3814.457290  18286.312507      7.459051                    
V  8  20261.837291 -10684.889070  18475.585548       .001142                    
P  9  -9637.248167  18954.515674 -16452.149560     63.531138                    
V  9 -17497.456606   9432.436302  21857.484590       .023527                    
P 10 -24138.078861  -6518.520009   9279.938056    -67.015850                    
V 10  -8995.357643  -8344.058495 -28236.432455      -.010349                    
P 11   6390.039607 -21955.821372 -13535.368387   -129.365379                    
V 11  14876.104002  -9242.225558  22897.792301      -.030288                    
P 12    162.583416  16469.737223 -20842.399570    -24.559028                    
V 12 -23234.884492 -12675.399942 -10017.992506       .032426                    
P 13  -5703.617009 -23393.502045  11015.843806    281.449946                    
V 13   2607.922947 -14036.805874 -28144.348668      -.013769                    
P 14  13737.700846   8018.649860 -21138.871165    133.270280                    
V 14  -1678.442933  27066.790663   8981.309345       .025258                    
P 15  -4032.021318  25284.329008   6748.010237   -149.001494                    
V 15  -3371.299831  -8504.253091  30057.758234       .033980                    
P 16  18724.416873  -3487.973231  18668.906518   -152.777808                    
V 16  19549.668022  13073.302618 -16909.163075      -.029109                    
P 17 -14113.971483  -9303.789473 -20414.083097    183.394960                    
V 17   1269.147221 -26132.147231  10742.564002       .003012                    
P 18  19813.127353  16956.194585   6290.990967    123.005331                    
V 18  -8115.082078  -1085.166557  29548.647726       .020513                    
P 19   8592.542675 -22888.221252   9949.879429   -113.863041                    
V 19   1933.728095  12912.428098  28370.663612      -.037072                    
P 20  -5172.406696 -18258.430224 -18758.292851     48.659714                    
V 20  21756.809798   9256.206639 -15060.618729      -.000080                    
P 21  11367.395831  11752.756056  21378.078519   -125.884447                    
V 21 -22631.186998  13405.981322   4129.389428      -.026861                    
P 22  24083.985052  10319.416715  -4494.033001    152.849282                    
V 22   3269.754595   6106.582590  30328.559995      -.008526                    
P 23    388.192595 -26363.931991   -639.913681    324.250352                    
V 23   2963.274717    810.916402 -32068.800780      -.024046                    
P 24   7640.704525 -18231.231408 -17552.713432    367.808622                    
V 24  20900.625580  -8686.459733  18326.543915       .032578                    
P 25  14622.842340  18091.674010 -12840.590571    -69.170158                    
V 25 -15373.080073  -5797.580590 -25688.519679      -.012656                    
P 26 -11764.918328  16550.249029  16303.207601   -128.332343                    
V 26   -385.381454 -21990.813875  21701.879807      -.097790                    
P 27 -15332.821600  18469.829279 -10368.265134    239.409179                    
V 27 -13158.094803   5919.381339  28486.042855       .036823                    
P 28 -23005.787959 -13501.751053   -769.963183     21.544148                    
V 28   -194.995975  -2723.198444  31832.745467       .021170                    
P 29   5187.438881  24748.863850   8268.619865    187.543325                    
V 29  -2783.043394  10315.631338 -29379.003901       .028862                    
P 30  22794.486770   1135.040476  13204.988445    324.062342                    
V 30  14491.261675   9974.791245 -25072.044459       .030333                    
P 31  23844.008476  -6136.706207 -10016.789318     44.991220                    
V 31 -10218.705779   8154.734405 -28514.482172       .047161                    
P 32   4250.185777 -15175.775547 -21138.514006   -201.968454                    
V 32  22955.923503  15122.106587  -5760.442714      -.077478                    
EOF
